[{"OBJECT_NAME":"STARLINK-34393","OBJECT_ID":"2025-144A","EPOCH":"2026-03-09T13:06:30.984480","MEAN_MOTION":15.30213538,"ECCENTRICITY":7.807e-5,"INCLINATION":53.1592,"RA_OF_ASC_NODE":181.4423,"ARG_OF_PERICENTER":122.2197,"MEAN_ANOMALY":237.888,"EPHEMERIS_TYPE":0,"CLASSIFICATION_TYPE":"U","NORAD_CAT_ID":64724,"ELEMENT_SET_NO":999,"REV_AT_EPOCH":3970,"BSTAR":0.00096377369,"MEAN_MOTION_DOT":0.00028306,"MEAN_MOTION_DDOT":0},{"OBJECT_NAME":"COSMOS 1975","OBJECT_ID":"1988-093A","EPOCH":"2026-03-09T14:15:08.474112","MEAN_MOTION":15.28069249,"ECCENTRICITY":0.0012117,"INCLINATION":82.5181,"RA_OF_ASC_NODE":117.7814,"ARG_OF_PERICENTER":163.8427,"MEAN_ANOMALY":196.3201,"EPHEMERIS_TYPE":0,"CLASSIFICATION_TYPE":"U","NORAD_CAT_ID":19573,"ELEMENT_SET_NO":999,"REV_AT_EPOCH":1939,"BSTAR":0.0002787,"MEAN_MOTION_DOT":7.676e-5,"MEAN_MOTION_DDOT":0}]
